[{"OBJECT_NAME":"SL-16 R/B","OBJECT_ID":"1993-059B","EPOCH":"2026-03-21T11:25:01.536672","MEAN_MOTION":14.17234546,"ECCENTRICITY":0.00178435,"INCLINATION":70.993,"RA_OF_ASC_NODE":346.2738,"ARG_OF_PERICENTER":199.4469,"MEAN_ANOMALY":160.5976,"EPHEMERIS_TYPE":0,"CLASSIFICATION_TYPE":"U","NORAD_CAT_ID":22803,"ELEMENT_SET_NO":999,"REV_AT_EPOCH":68120,"BSTAR":0.00011893841,"MEAN_MOTION_DOT":1.93e-6,"MEAN_MOTION_DDOT":0},{"OBJECT_NAME":"ARIANE 40 R/B","OBJECT_ID":"1993-061H","EPOCH":"2026-03-21T10:19:18.625152","MEAN_MOTION":14.32866698,"ECCENTRICITY":0.00096742,"INCLINATION":98.4894,"RA_OF_ASC_NODE":149.0848,"ARG_OF_PERICENTER":246.2121,"MEAN_ANOMALY":113.8049,"EPHEMERIS_TYPE":0,"CLASSIFICATION_TYPE":"U","NORAD_CAT_ID":22830,"ELEMENT_SET_NO":999,"REV_AT_EPOCH":69578,"BSTAR":8.3886519e-5,"MEAN_MOTION_DOT":1.86e-6,"MEAN_MOTION_DDOT":0},{"OBJECT_NAME":"COSMOS 2278","OBJECT_ID":"1994-023A","EPOCH":"2026-03-21T13:11:59.605152","MEAN_MOTION":14.14378037,"ECCENTRICITY":0.00088236,"INCLINATION":71.0537,"RA_OF_ASC_NODE":150.2865,"ARG_OF_PERICENTER":353.4392,"MEAN_ANOMALY":6.6614,"EPHEMERIS_TYPE":0,"CLASSIFICATION_TYPE":"U","NORAD_CAT_ID":23087,"ELEMENT_SET_NO":999,"REV_AT_EPOCH":64648,"BSTAR":-8.6435274e-5,"MEAN_MOTION_DOT":-2.13e-6,"MEAN_MOTION_DDOT":0},{"OBJECT_NAME":"SL-16 R/B","OBJECT_ID":"1994-023B","EPOCH":"2026-03-21T14:11:15.760032","MEAN_MOTION":14.15010693,"ECCENTRICITY":0.00054802,"INCLINATION":70.9998,"RA_OF_ASC_NODE":45.8906,"ARG_OF_PERICENTER":274.1004,"MEAN_ANOMALY":85.9492,"EPHEMERIS_TYPE":0,"CLASSIFICATION_TYPE":"U","NORAD_CAT_ID":23088,"ELEMENT_SET_NO":999,"REV_AT_EPOCH":64777,"BSTAR":9.1361873e-5,"MEAN_MOTION_DOT":1.29e-6,"MEAN_MOTION_DDOT":0},{"OBJECT_NAME":"SL-16 R/B","OBJECT_ID":"1994-074B","EPOCH":"2026-03-21T13:53:46.904640","MEAN_MOTION":14.79421039,"ECCENTRICITY":0.0006734,"INCLINATION":97.7093,"RA_OF_ASC_NODE":110.9146,"ARG_OF_PERICENTER":170.036,"MEAN_ANOMALY":341.5898,"EPHEMERIS_TYPE":0,"CLASSIFICATION_TYPE":"U","NORAD_CAT_ID":23343,"ELEMENT_SET_NO":999,"REV_AT_EPOCH":68900,"BSTAR":6.808815e-5,"MEAN_MOTION_DOT":4.59e-6,"MEAN_MOTION_DDOT":0},{"OBJECT_NAME":"SL-16 R/B","OBJECT_ID":"1994-077B","EPOCH":"2026-03-21T03:27:34.390656","MEAN_MOTION":14.15566762,"ECCENTRICITY":0.00024192,"INCLINATION":70.9847,"RA_OF_ASC_NODE":328.3929,"ARG_OF_PERICENTER":199.8144,"MEAN_ANOMALY":160.2885,"EPHEMERIS_TYPE":0,"CLASSIFICATION_TYPE":"U","NORAD_CAT_ID":23405,"ELEMENT_SET_NO":999,"REV_AT_EPOCH":61785,"BSTAR":0.00016239923,"MEAN_MOTION_DOT":2.7e-6,"MEAN_MOTION_DDOT":0},{"OBJECT_NAME":"ARIANE 40+ R/B","OBJECT_ID":"1995-021B","EPOCH":"2026-03-21T11:34:28.344000","MEAN_MOTION":14.39780466,"ECCENTRICITY":0.0007957,"INCLINATION":98.4476,"RA_OF_ASC_NODE":151.8039,"ARG_OF_PERICENTER":105.869,"MEAN_ANOMALY":264.6554,"EPHEMERIS_TYPE":0,"CLASSIFICATION_TYPE":"U","NORAD_CAT_ID":23561,"ELEMENT_SET_NO":999,"REV_AT_EPOCH":62094,"BSTAR":0.0001011532,"MEAN_MOTION_DOT":2.74e-6,"MEAN_MOTION_DDOT":0},{"OBJECT_NAME":"SL-16 R/B","OBJECT_ID":"1995-058B","EPOCH":"2026-03-21T13:48:59.303232","MEAN_MOTION":14.15500885,"ECCENTRICITY":0.00102122,"INCLINATION":71.0221,"RA_OF_ASC_NODE":155.3027,"ARG_OF_PERICENTER":103.8504,"MEAN_ANOMALY":256.3755,"EPHEMERIS_TYPE":0,"CLASSIFICATION_TYPE":"U","NORAD_CAT_ID":23705,"ELEMENT_SET_NO":999,"REV_AT_EPOCH":56953,"BSTAR":6.45241e-6,"MEAN_MOTION_DOT":-3.5e-7,"MEAN_MOTION_DDOT":0},{"OBJECT_NAME":"SL-16 R/B","OBJECT_ID":"1996-051B","EPOCH":"2026-03-21T13:38:13.000128","MEAN_MOTION":14.1241887,"ECCENTRICITY":0.00140744,"INCLINATION":70.7597,"RA_OF_ASC_NODE":150.0984,"ARG_OF_PERICENTER":129.3043,"MEAN_ANOMALY":230.9327,"EPHEMERIS_TYPE":0,"CLASSIFICATION_TYPE":"U","NORAD_CAT_ID":24298,"ELEMENT_SET_NO":999,"REV_AT_EPOCH":52332,"BSTAR":8.3812448e-5,"MEAN_MOTION_DOT":1.06e-6,"MEAN_MOTION_DDOT":0},{"OBJECT_NAME":"ORBVIEW 2 (SEASTAR)","OBJECT_ID":"1997-037A","EPOCH":"2026-03-21T11:25:53.150304","MEAN_MOTION":14.35502977,"ECCENTRICITY":0.00027222,"INCLINATION":98.8586,"RA_OF_ASC_NODE":245.1015,"ARG_OF_PERICENTER":46.6732,"MEAN_ANOMALY":313.4679,"EPHEMERIS_TYPE":0,"CLASSIFICATION_TYPE":"U","NORAD_CAT_ID":24883,"ELEMENT_SET_NO":999,"REV_AT_EPOCH":51016,"BSTAR":0.00010873273,"MEAN_MOTION_DOT":2.66e-6,"MEAN_MOTION_DDOT":0},{"OBJECT_NAME":"SL-16 R/B","OBJECT_ID":"1998-043G","EPOCH":"2026-03-21T14:08:25.940832","MEAN_MOTION":14.26052328,"ECCENTRICITY":0.00095889,"INCLINATION":98.8276,"RA_OF_ASC_NODE":34.0383,"ARG_OF_PERICENTER":346.3565,"MEAN_ANOMALY":13.7354,"EPHEMERIS_TYPE":0,"CLASSIFICATION_TYPE":"U","NORAD_CAT_ID":25400,"ELEMENT_SET_NO":999,"REV_AT_EPOCH":44068,"BSTAR":4.442052e-5,"MEAN_MOTION_DOT":6.1e-7,"MEAN_MOTION_DDOT":0},{"OBJECT_NAME":"SL-16 R/B","OBJECT_ID":"1998-045B","EPOCH":"2026-03-21T13:56:19.214016","MEAN_MOTION":14.16195503,"ECCENTRICITY":0.00075668,"INCLINATION":71.0119,"RA_OF_ASC_NODE":156.5694,"ARG_OF_PERICENTER":349.1519,"MEAN_ANOMALY":10.944,"EPHEMERIS_TYPE":0,"CLASSIFICATION_TYPE":"U","NORAD_CAT_ID":25407,"ELEMENT_SET_NO":999,"REV_AT_EPOCH":42878,"BSTAR":1.6945732e-5,"MEAN_MOTION_DOT":-1.4e-7,"MEAN_MOTION_DDOT":0},{"OBJECT_NAME":"ISS (ZARYA)","OBJECT_ID":"1998-067A","EPOCH":"2026-03-21T12:25:18.954336","MEAN_MOTION":15.48422342,"ECCENTRICITY":0.000631,"INCLINATION":51.6347,"RA_OF_ASC_NODE":13.8885,"ARG_OF_PERICENTER":215.8915,"MEAN_ANOMALY":144.165,"EPHEMERIS_TYPE":0,"CLASSIFICATION_TYPE":"U","NORAD_CAT_ID":25544,"ELEMENT_SET_NO":999,"REV_AT_EPOCH":55816,"BSTAR":0.00026848155,"MEAN_MOTION_DOT":0.0001408,"MEAN_MOTION_DDOT":0},{"OBJECT_NAME":"CZ-4B R/B","OBJECT_ID":"1999-025C","EPOCH":"2026-03-21T14:22:02.882208","MEAN_MOTION":14.18267593,"ECCENTRICITY":0.00362004,"INCLINATION":98.6602,"RA_OF_ASC_NODE":124.5968,"ARG_OF_PERICENTER":311.7869,"MEAN_ANOMALY":163.0669,"EPHEMERIS_TYPE":0,"CLASSIFICATION_TYPE":"U","NORAD_CAT_ID":25732,"ELEMENT_SET_NO":999,"REV_AT_EPOCH":38985,"BSTAR":4.3213526e-5,"MEAN_MOTION_DOT":4.6e-7,"MEAN_MOTION_DDOT":0},{"OBJECT_NAME":"OKEAN-O","OBJECT_ID":"1999-039A","EPOCH":"2026-03-21T14:46:55.774848","MEAN_MOTION":14.80353841,"ECCENTRICITY":9.472e-5,"INCLINATION":97.9417,"RA_OF_ASC_NODE":140.3848,"ARG_OF_PERICENTER":79.069,"MEAN_ANOMALY":281.0629,"EPHEMERIS_TYPE":0,"CLASSIFICATION_TYPE":"U","NORAD_CAT_ID":25860,"ELEMENT_SET_NO":999,"REV_AT_EPOCH":43615,"BSTAR":9.4644595e-5,"MEAN_MOTION_DOT":6.7e-6,"MEAN_MOTION_DDOT":0},{"OBJECT_NAME":"SL-16 R/B","OBJECT_ID":"1999-039B","EPOCH":"2026-03-21T14:01:47.012160","MEAN_MOTION":14.81747186,"ECCENTRICITY":0.00140117,"INCLINATION":97.9941,"RA_OF_ASC_NODE":139.6621,"ARG_OF_PERICENTER":214.4112,"MEAN_ANOMALY":145.6195,"EPHEMERIS_TYPE":0,"CLASSIFICATION_TYPE":"U","NORAD_CAT_ID":25861,"ELEMENT_SET_NO":999,"REV_AT_EPOCH":43862,"BSTAR":7.7386954e-5,"MEAN_MOTION_DOT":5.57e-6,"MEAN_MOTION_DDOT":0},{"OBJECT_NAME":"DELTA 2 R/B","OBJECT_ID":"1999-041E","EPOCH":"2026-03-21T11:25:56.768736","MEAN_MOTION":14.11866346,"ECCENTRICITY":0.05026096,"INCLINATION":51.7604,"RA_OF_ASC_NODE":254.1972,"ARG_OF_PERICENTER":23.1979,"MEAN_ANOMALY":339.0805,"EPHEMERIS_TYPE":0,"CLASSIFICATION_TYPE":"U","NORAD_CAT_ID":25876,"ELEMENT_SET_NO":999,"REV_AT_EPOCH":36469,"BSTAR":0.00010604632,"MEAN_MOTION_DOT":4.12e-6,"MEAN_MOTION_DDOT":0}]
